     2              NAVIGATION DATA                         RINEX VERSION / TYPE
CCRINEXN V1.6.0 UX  CDDIS               02-MAY-16 15:33     PGM / RUN BY / DATE 
IGS BROADCAST EPHEMERIS FILE                                COMMENT             
    0.1397D-07  0.2235D-07 -0.1192D-06 -0.1192D-06          ION ALPHA           
    0.1044D+06  0.9830D+05 -0.1966D+06 -0.3932D+06          ION BETA            
    0.186264514923D-08 0.621724893790D-14    61440     1895 DELTA-UTC: A0,A1,T,W
    17                                                      LEAP SECONDS        
                                                            END OF HEADER       
 8 16  5  1  5 59 44.0-0.334386713803D-04-0.147792889038D-11 0.000000000000D+00
    0.140000000000D+02-0.136562500000D+02 0.474376902559D-08 0.996834557498D+00
   -0.633299350738D-06 0.179181969725D-02 0.422447919846D-05 0.515368041038D+04
    0.215840000000D+05-0.242143869400D-07-0.284179984474D+01-0.119209289551D-06
    0.963151344171D+00 0.297500000000D+03-0.115525985332D+01-0.838642075666D-08
    0.233938315898D-09 0.000000000000D+00 0.189500000000D+04 0.000000000000D+00
    0.200000000000D+01 0.000000000000D+00 0.465661287308D-08 0.140000000000D+02
    0.144000000000D+05 0.400000000000D+01 0.000000000000D+00 0.000000000000D+00
10 16  5  1  5 59 44.0-0.115218572319D-04-0.932232069317D-11 0.000000000000D+00
    0.180000000000D+02 0.172812500000D+02 0.462662130829D-08 0.190247774494D+01
    0.964850187302D-06 0.145122071262D-02 0.105947256088D-04 0.515368750572D+04
    0.215840000000D+05-0.670552253723D-07-0.744000776767D+00 0.465661287308D-07
    0.959590110025D+00 0.177375000000D+03-0.273694936365D+01-0.802497712726D-08
    0.129648264347D-09 0.100000000000D+01 0.189500000000D+04 0.000000000000D+00
    0.200000000000D+01 0.000000000000D+00 0.232830643654D-08 0.180000000000D+02
    0.144000000000D+05 0.000000000000D+00 0.000000000000D+00 0.000000000000D+00
13 16  5  1  5 59 44.0-0.147186219692D-04-0.261479726760D-11 0.000000000000D+00
    0.000000000000D+00 0.305625000000D+02 0.454661795632D-08-0.184538097249D+01
    0.148825347424D-05 0.447815645020D-02 0.596791505814D-05 0.515367595673D+04
    0.215840000000D+05-0.596046447754D-07 0.419675465168D+00 0.126659870148D-06
    0.971923075583D+00 0.268750000000D+03 0.199641935124D+01-0.814033907780D-08
   -0.173935816554D-09 0.100000000000D+01 0.189500000000D+04 0.000000000000D+00
    0.200000000000D+01 0.000000000000D+00-0.111758708954D-07 0.000000000000D+00
    0.199080000000D+05 0.400000000000D+01 0.000000000000D+00 0.000000000000D+00
30 16  5  1  5 59 44.0 0.121452379972D-03 0.329691829393D-11 0.000000000000D+00
    0.210000000000D+02-0.537500000000D+01 0.462162108050D-08-0.263375101739D+01
   -0.266358256340D-06 0.198123091832D-02 0.893510878086D-05 0.515361114883D+04
    0.215840000000D+05 0.279396772385D-07 0.142211119074D+01-0.260770320892D-07
    0.952246963468D+00 0.202718750000D+03 0.298627482105D+01-0.815462538716D-08
   -0.371801201298D-09 0.000000000000D+00 0.189500000000D+04 0.000000000000D+00
    0.200000000000D+01 0.000000000000D+00 0.325962901115D-08 0.210000000000D+02
    0.165600000000D+05 0.400000000000D+01 0.000000000000D+00 0.000000000000D+00
 1 16  5  1  6  0  0.0 0.189836136997D-04 0.113686837722D-11 0.000000000000D+00
    0.180000000000D+02-0.817812500000D+02 0.458233372974D-08-0.204671916493D+01
   -0.438094139099D-05 0.534812943079D-02 0.909529626370D-05 0.515365010834D+04
    0.216000000000D+05 0.968575477600D-07-0.178158166822D+01-0.689178705216D-07
    0.963886934491D+00 0.204062500000D+03 0.452927675033D+00-0.808283668259D-08
   -0.782175437889D-10 0.000000000000D+00 0.189500000000D+04 0.000000000000D+00
    0.200000000000D+01 0.000000000000D+00 0.512227416039D-08 0.180000000000D+02
    0.144000000000D+05 0.400000000000D+01 0.000000000000D+00 0.000000000000D+00
 2 16  5  1  6  0  0.0 0.594301149249D-03-0.204636307899D-11 0.000000000000D+00
    0.560000000000D+02-0.864687500000D+02 0.509164065870D-08-0.167286190194D+01
   -0.431016087532D-05 0.156608390389D-01 0.723823904991D-05 0.515376956177D+04
    0.216000000000D+05 0.331550836563D-06-0.182654476845D+01-0.558793544769D-08
    0.942658802346D+00 0.225406250000D+03-0.212562955421D+01-0.822141388346D-08
   -0.310727228751D-10 0.100000000000D+01 0.189500000000D+04 0.000000000000D+00
    0.200000000000D+01 0.000000000000D+00-0.200234353542D-07 0.560000000000D+02
    0.144180000000D+05 0.400000000000D+01 0.000000000000D+00 0.000000000000D+00
 3 16  5  1  6  0  0.0-0.531584955752D-04-0.386535248253D-11 0.000000000000D+00
    0.230000000000D+02 0.210625000000D+02 0.458483383388D-08-0.477101967658D+00
    0.100024044514D-05 0.247598276474D-03 0.106897205114D-04 0.515371579361D+04
    0.216000000000D+05-0.391155481338D-07-0.739969839125D+00 0.353902578354D-07
    0.959347574300D+00 0.169843750000D+03-0.223690004105D+01-0.799890461506D-08
    0.181078971237D-09 0.000000000000D+00 0.189500000000D+04 0.000000000000D+00
    0.200000000000D+01 0.000000000000D+00 0.186264514923D-08 0.230000000000D+02
    0.144000000000D+05 0.400000000000D+01 0.000000000000D+00 0.000000000000D+00
 4 16  5  1  6  0  0.0-0.255476683378D-03-0.682121026330D-12 0.000000000000D+00
    0.660000000000D+02 0.429375000000D+02 0.511878464650D-08 0.113444067408D+01
    0.222586095333D-05 0.846233626362D-02 0.874884426594D-05 0.515364223480D+04
    0.216000000000D+05-0.115483999252D-06 0.242432748153D+01 0.335276126862D-07
    0.983414281004D+00 0.223187500000D+03 0.877248614617D+00-0.792890169915D-08
    0.111433213069D-09 0.100000000000D+01 0.189500000000D+04 0.000000000000D+00
    0.280000000000D+01 0.630000000000D+02-0.195577740669D-07 0.660000000000D+02
    0.178500000000D+05 0.400000000000D+01 0.000000000000D+00 0.000000000000D+00
 5 16  5  1  6  0  0.0-0.124490819871D-03 0.306954461848D-11 0.000000000000D+00
    0.850000000000D+02 0.453125000000D+01 0.497485007962D-08 0.839037295328D+00
    0.540167093277D-06 0.457288720645D-02 0.103153288364D-04 0.515378203773D+04
    0.216000000000D+05 0.819563865662D-07-0.751513294128D+00-0.186264514923D-08
    0.946418917278D+00 0.170656250000D+03 0.456598391041D+00-0.823462871963D-08
    0.628597612185D-10 0.100000000000D+01 0.189500000000D+04 0.000000000000D+00
    0.200000000000D+01 0.000000000000D+00-0.107102096081D-07 0.850000000000D+02
    0.144180000000D+05 0.400000000000D+01 0.000000000000D+00 0.000000000000D+00
 6 16  5  1  6  0  0.0 0.183697789908D-03 0.557065504836D-11 0.000000000000D+00
    0.500000000000D+01-0.877187500000D+02 0.467912347570D-08-0.163498800178D+01
   -0.444799661636D-05 0.443883589469D-03 0.849552452564D-05 0.515368471909D+04
    0.216000000000D+05 0.745058059692D-08-0.179002134649D+01 0.186264514923D-08
    0.963722326949D+00 0.218343750000D+03-0.151315218745D+01-0.811926677148D-08
   -0.141434462742D-09 0.000000000000D+00 0.189500000000D+04 0.000000000000D+00
    0.200000000000D+01 0.000000000000D+00 0.419095158577D-08 0.500000000000D+01
    0.206400000000D+05 0.400000000000D+01 0.000000000000D+00 0.000000000000D+00
 7 16  5  1  6  0  0.0 0.457139685750D-03-0.216004991671D-11 0.000000000000D+00
    0.150000000000D+02-0.100000000000D+01 0.420696095110D-08-0.277777249934D+01
   -0.154599547386D-06 0.932639546227D-02 0.899843871594D-05 0.515365654755D+04
    0.216000000000D+05-0.931322574616D-08 0.137757694934D+01-0.111758708954D-06
    0.966465705039D+00 0.209312500000D+03-0.267988173252D+01-0.785246994404D-08
   -0.346800159904D-09 0.000000000000D+00 0.189500000000D+04 0.000000000000D+00
    0.200000000000D+01 0.000000000000D+00-0.111758708954D-07 0.150000000000D+02
    0.144000000000D+05 0.400000000000D+01 0.000000000000D+00 0.000000000000D+00
 9 16  5  1  6  0  0.0 0.120430253446D-03 0.738964445190D-11 0.000000000000D+00
    0.390000000000D+02 0.321250000000D+02 0.490806158332D-08-0.183065217721D+00
    0.161491334438D-05 0.617375713773D-03 0.604242086411D-05 0.515358520126D+04
    0.216000000000D+05-0.558793544769D-08 0.299387684413D+00-0.484287738800D-07
    0.955551666151D+00 0.259406250000D+03 0.215856765655D+01-0.829391690350D-08
   -0.109647424398D-09 0.000000000000D+00 0.189500000000D+04 0.000000000000D+00
    0.200000000000D+01 0.000000000000D+00 0.139698386192D-08 0.390000000000D+02
    0.212700000000D+05 0.400000000000D+01 0.000000000000D+00 0.000000000000D+00
11 16  5  1  6  0  0.0-0.644756481051D-03-0.261479726760D-11 0.000000000000D+00
    0.710000000000D+02-0.849687500000D+02 0.617490006652D-08-0.265872607041D+01
   -0.443309545517D-05 0.163028672105D-01 0.513531267643D-05 0.515366279793D+04
    0.216000000000D+05 0.227242708206D-06-0.215682619009D+01 0.165775418282D-06
    0.896191819404D+00 0.238187500000D+03 0.151931659654D+01-0.876179353530D-08
    0.203579908492D-10 0.000000000000D+00 0.189500000000D+04 0.000000000000D+00
    0.200000000000D+01 0.000000000000D+00-0.121071934700D-07 0.710000000000D+02
    0.144000000000D+05 0.400000000000D+01 0.000000000000D+00 0.000000000000D+00
12 16  5  1  6  0  0.0 0.378193799406D-03 0.125055521494D-11 0.000000000000D+00
    0.103000000000D+03 0.339062500000D+02 0.361086469272D-08 0.298589567511D+01
    0.181235373020D-05 0.612831220496D-02 0.924244523048D-05 0.515374458313D+04
    0.216000000000D+05-0.558793544769D-08 0.245341195043D+01-0.689178705216D-07
    0.990413015683D+00 0.216625000000D+03 0.728120817109D+00-0.760995984252D-08
    0.268939773850D-09 0.100000000000D+01 0.189500000000D+04 0.000000000000D+00
    0.200000000000D+01 0.000000000000D+00-0.125728547573D-07 0.103000000000D+03
    0.144180000000D+05 0.400000000000D+01 0.000000000000D+00 0.000000000000D+00
